CCSDS_OMM_VERS = 2.0
CREATION_DATE  = 
ORIGINATOR     = 

OBJECT_NAME    = KZ-11 R/B
OBJECT_ID      = 2025-296C
CENTER_NAME    = EARTH
REF_FRAME      = TEME
TIME_SYSTEM    = UTC
MEAN_ELEMENT_THEORY = SGP/SGP4

EPOCH          = 2025-12-15T17:09:47.995776
MEAN_MOTION    = 14.58622367
ECCENTRICITY   = .07956316
INCLINATION    = 41.3440
RA_OF_ASC_NODE = 85.9238
ARG_OF_PERICENTER = 336.1790
MEAN_ANOMALY   = 20.4018

EPHEMERIS_TYPE = 0
CLASSIFICATION_TYPE = U
NORAD_CAT_ID   = 67071
ELEMENT_SET_NO = 999
REV_AT_EPOCH   = 39
BSTAR          = .44822831E-3
MEAN_MOTION_DOT = .4090434E-1
MEAN_MOTION_DDOT = .5284999E-5

CCSDS_OMM_VERS = 2.0
CREATION_DATE  = 
ORIGINATOR     = 

OBJECT_NAME    = ELECTRON R/B
OBJECT_ID      = 2025-297A
CENTER_NAME    = EARTH
REF_FRAME      = TEME
TIME_SYSTEM    = UTC
MEAN_ELEMENT_THEORY = SGP/SGP4

EPOCH          = 2025-12-15T22:36:40.336992
MEAN_MOTION    = 15.74906784
ECCENTRICITY   = .02473954
INCLINATION    = 97.4806
RA_OF_ASC_NODE = 137.5814
ARG_OF_PERICENTER = 220.6839
MEAN_ANOMALY   = 137.5717

EPHEMERIS_TYPE = 0
CLASSIFICATION_TYPE = U
NORAD_CAT_ID   = 67072
ELEMENT_SET_NO = 999
REV_AT_EPOCH   = 29
BSTAR          = .13310064E-2
MEAN_MOTION_DOT = .1736878E-1
MEAN_MOTION_DDOT = .224443E-5

CCSDS_OMM_VERS = 2.0
CREATION_DATE  = 
ORIGINATOR     = 

OBJECT_NAME    = RAISE-4
OBJECT_ID      = 2025-297B
CENTER_NAME    = EARTH
REF_FRAME      = TEME
TIME_SYSTEM    = UTC
MEAN_ELEMENT_THEORY = SGP/SGP4

EPOCH          = 2025-12-15T21:15:43.405920
MEAN_MOTION    = 15.07151436
ECCENTRICITY   = .0011743
INCLINATION    = 97.4850
RA_OF_ASC_NODE = 137.3506
ARG_OF_PERICENTER = 309.3630
MEAN_ANOMALY   = 50.6557

EPHEMERIS_TYPE = 0
CLASSIFICATION_TYPE = U
NORAD_CAT_ID   = 67073
ELEMENT_SET_NO = 999
REV_AT_EPOCH   = 26
BSTAR          = .25306157E-3
MEAN_MOTION_DOT = .3749E-4
MEAN_MOTION_DDOT = 0

CCSDS_OMM_VERS = 2.0
CREATION_DATE  = 
ORIGINATOR     = 

OBJECT_NAME    = ELECTRON KICK STAGE R/B
OBJECT_ID      = 2025-297C
CENTER_NAME    = EARTH
REF_FRAME      = TEME
TIME_SYSTEM    = UTC
MEAN_ELEMENT_THEORY = SGP/SGP4

EPOCH          = 2025-12-15T21:33:35.016480
MEAN_MOTION    = 15.54435727
ECCENTRICITY   = .02071475
INCLINATION    = 97.4818
RA_OF_ASC_NODE = 137.4993
ARG_OF_PERICENTER = 258.0291
MEAN_ANOMALY   = 99.7676

EPHEMERIS_TYPE = 0
CLASSIFICATION_TYPE = U
NORAD_CAT_ID   = 67074
ELEMENT_SET_NO = 999
REV_AT_EPOCH   = 27
BSTAR          = .13632328E-2
MEAN_MOTION_DOT = .23846E-2
MEAN_MOTION_DDOT = .16758175E-4

