KZ-11 R/B               
1 67071U 25296C   25349.71513884  .04090434  52850-5  44823-3 0  9998
2 67071  41.3440  85.9238 0795631 336.1790  20.4018 14.58622367   395
ELECTRON R/B            
1 67072U 25297A   25349.94213353  .01736878  22444-5  13310-2 0  9991
2 67072  97.4806 137.5814 0247395 220.6839 137.5717 15.74906784   290
RAISE-4                 
1 67073U 25297B   25349.88591905  .00003749  00000+0  25306-3 0  9997
2 67073  97.4850 137.3506 0011743 309.3630  50.6557 15.07151436   262
ELECTRON KICK STAGE R/B 
1 67074U 25297C   25349.89832195  .00238460  16758-4  13632-2 0  9998
2 67074  97.4818 137.4993 0207147 258.0291  99.7676 15.54435727   273
